[{"OBJECT_NAME":"STARLINK-5926","OBJECT_ID":"2023-037AG","EPOCH":"2026-03-09T21:23:16.268928","MEAN_MOTION":14.98337472,"ECCENTRICITY":0.00027242,"INCLINATION":69.998,"RA_OF_ASC_NODE":283.8156,"ARG_OF_PERICENTER":270.4754,"MEAN_ANOMALY":89.6093,"EPHEMERIS_TYPE":0,"CLASSIFICATION_TYPE":"U","NORAD_CAT_ID":55944,"ELEMENT_SET_NO":999,"REV_AT_EPOCH":16401,"BSTAR":4.3170386e-5,"MEAN_MOTION_DOT":4.22e-6,"MEAN_MOTION_DDOT":0},{"OBJECT_NAME":"SITRO-AIS 19","OBJECT_ID":"2024-199AA","EPOCH":"2026-03-09T22:55:52.374720","MEAN_MOTION":14.97361264,"ECCENTRICITY":0.00068965,"INCLINATION":97.3309,"RA_OF_ASC_NODE":274.6556,"ARG_OF_PERICENTER":52.1847,"MEAN_ANOMALY":307.9999,"EPHEMERIS_TYPE":0,"CLASSIFICATION_TYPE":"U","NORAD_CAT_ID":61759,"ELEMENT_SET_NO":999,"REV_AT_EPOCH":12028,"BSTAR":0.00032569983,"MEAN_MOTION_DOT":3.731e-5,"MEAN_MOTION_DDOT":0}]
